ADRAS-J                 
1 58992U 24034A   24265.71631169  .00005518  00000+0  49526-3 0  9996
2 58992  98.2238 243.2548 0045370  91.0901 269.5517 14.95389185 32287
